stk.v.4.3 

BEGIN Ephemeris 
 
NumberOfEphemerisPoints		146 
ScenarioEpoch	    1 Sep 2020 20:15:52.792994678 
InterpolationMethod		Lagrange 
InterpolationOrder		5 
CentralBody				Earth 
CoordinateSystem			TEME 
CoordinateSystemEpoch	  1 Sep 2020 20:15:52.792994678 
DistanceUnit			Kilometers 
 
EphemerisTimePosVel 
 
       0.00000000   -6534.33288393    2915.39415014       0.03567821 -0.180649907 -0.433582911  7.453405307
 END Ephemeris 
